{
  "type": "FeatureCollection",
  "features": [
    {
      "type": "Feature",
      "properties": {
        "norad_id": 32393,
        "name": "COSMOS 2434 (721)",
        "group": "gnss",
        "lat": 25.030091319603542,
        "lon": -148.66422375659954,
        "alt_km": 19118.808776668917,
        "timestamp": "2025-12-08T13:49:32.033734+00:00",
        "meta_object_name": "COSMOS 2434 (721)",
        "meta_object_id": "2007-065A",
        "meta_epoch": "2025-12-08T05:21:15.731136",
        "meta_mean_motion": 2.13101228,
        "meta_eccentricity": 0.00044814,
        "meta_inclination": 64.3148,
        "meta_ra_of_asc_node": 198.3559,
        "meta_arg_of_pericenter": 71.0536,
        "meta_mean_anomaly": 46.2753,
        "meta_ephemeris_type": 0,
        "meta_classification_type": "U",
        "meta_norad_cat_id": 32393,
        "meta_element_set_no": 999,
        "meta_rev_at_epoch": 13970,
        "meta_bstar": 0,
        "meta_mean_motion_dot": 5e-07,
        "meta_mean_motion_ddot": 0,
        "tle_line1": "1 32393U 07065A   25342.22309874  .00000050  00000+0  00000+0 0  9992",
        "tle_line2": "2 32393  64.3148 198.3559 0004481  71.0536  46.2753  2.13101228139704"
      },
      "geometry": {
        "type": "Point",
        "coordinates": [
          -148.66422375659954,
          25.030091319603542
        ]
      }
    },
    {
      "type": "Feature",
      "properties": {
        "norad_id": 32395,
        "name": "COSMOS 2436 (723)",
        "group": "gnss",
        "lat": 16.806016671212905,
        "lon": 10.062838672467375,
        "alt_km": 19168.309959348022,
        "timestamp": "2025-12-08T13:49:32.033746+00:00",
        "meta_object_name": "COSMOS 2436 (723)",
        "meta_object_id": "2007-065C",
        "meta_epoch": "2025-12-08T02:01:11.627904",
        "meta_mean_motion": 2.13100022,
        "meta_eccentricity": 0.00177472,
        "meta_inclination": 64.3236,
        "meta_ra_of_asc_node": 198.4308,
        "meta_arg_of_pericenter": 9.2257,
        "meta_mean_anomaly": 134.6131,
        "meta_ephemeris_type": 0,
        "meta_classification_type": "U",
        "meta_norad_cat_id": 32395,
        "meta_element_set_no": 999,
        "meta_rev_at_epoch": 13965,
        "meta_bstar": 0,
        "meta_mean_motion_dot": 5.1e-07,
        "meta_mean_motion_ddot": 0,
        "tle_line1": "1 32395U 07065C   25342.08416236  .00000051  00000+0  00000+0 0  9990",
        "tle_line2": "2 32395  64.3236 198.4308 0017747   9.2257 134.6131  2.13100022139656"
      },
      "geometry": {
        "type": "Point",
        "coordinates": [
          10.062838672467375,
          16.806016671212905
        ]
      }
    },
    {
      "type": "Feature",
      "properties": {
        "norad_id": 32711,
        "name": "GPS BIIRM-6 (PRN 07)",
        "group": "gnss",
        "lat": -53.14728758826386,
        "lon": 85.08221958818262,
        "alt_km": 19746.80321077995,
        "timestamp": "2025-12-08T13:49:32.033758+00:00",
        "meta_object_name": "GPS BIIRM-6 (PRN 07)",
        "meta_object_id": "2008-012A",
        "meta_epoch": "2025-12-07T16:30:50.099904",
        "meta_mean_motion": 2.00565328,
        "meta_eccentricity": 0.02022386,
        "meta_inclination": 54.4764,
        "meta_ra_of_asc_node": 157.5746,
        "meta_arg_of_pericenter": 244.892,
        "meta_mean_anomaly": 113.0048,
        "meta_ephemeris_type": 0,
        "meta_classification_type": "U",
        "meta_norad_cat_id": 32711,
        "meta_element_set_no": 999,
        "meta_rev_at_epoch": 12991,
        "meta_bstar": 0,
        "meta_mean_motion_dot": 5.7e-07,
        "meta_mean_motion_ddot": 0,
        "tle_line1": "1 32711U 08012A   25341.68807986  .00000057  00000+0  00000+0 0  9992",
        "tle_line2": "2 32711  54.4764 157.5746 0202238 244.8920 113.0048  2.00565328129917"
      },
      "geometry": {
        "type": "Point",
        "coordinates": [
          85.08221958818262,
          -53.14728758826386
        ]
      }
    },
    {
      "type": "Feature",
      "properties": {
        "norad_id": 35752,
        "name": "GPS BIIRM-8 (PRN 05)",
        "group": "gnss",
        "lat": -46.72035159446834,
        "lon": -10.581369513884818,
        "alt_km": 20297.615127555913,
        "timestamp": "2025-12-08T13:49:32.033770+00:00",
        "meta_object_name": "GPS BIIRM-8 (PRN 05)",
        "meta_object_id": "2009-043A",
        "meta_epoch": "2025-12-08T03:13:53.099904",
        "meta_mean_motion": 2.00565854,
        "meta_eccentricity": 0.00519295,
        "meta_inclination": 56.0878,
        "meta_ra_of_asc_node": 34.9648,
        "meta_arg_of_pericenter": 81.9835,
        "meta_mean_anomaly": 258.3784,
        "meta_ephemeris_type": 0,
        "meta_classification_type": "U",
        "meta_norad_cat_id": 35752,
        "meta_element_set_no": 999,
        "meta_rev_at_epoch": 11952,
        "meta_bstar": 0,
        "meta_mean_motion_dot": -8e-07,
        "meta_mean_motion_ddot": 0,
        "tle_line1": "1 35752U 09043A   25342.13464236 -.00000080  00000+0  00000+0 0  9990",
        "tle_line2": "2 35752  56.0878  34.9648 0051929  81.9835 258.3784  2.00565854119522"
      },
      "geometry": {
        "type": "Point",
        "coordinates": [
          -10.581369513884818,
          -46.72035159446834
        ]
      }
    },
    {
      "type": "Feature",
      "properties": {
        "norad_id": 36111,
        "name": "COSMOS 2456 (730)",
        "group": "gnss",
        "lat": -4.687014281047388,
        "lon": -100.31328489727994,
        "alt_km": 19133.905086158305,
        "timestamp": "2025-12-08T13:49:32.033782+00:00",
        "meta_object_name": "COSMOS 2456 (730)",
        "meta_object_id": "2009-070A",
        "meta_epoch": "2025-12-07T20:44:40.162272",
        "meta_mean_motion": 2.13103432,
        "meta_eccentricity": 0.00030434,
        "meta_inclination": 64.8974,
        "meta_ra_of_asc_node": 77.5047,
        "meta_arg_of_pericenter": 297.6461,
        "meta_mean_anomaly": 61.5166,
        "meta_ephemeris_type": 0,
        "meta_classification_type": "U",
        "meta_norad_cat_id": 36111,
        "meta_element_set_no": 999,
        "meta_rev_at_epoch": 12434,
        "meta_bstar": 0,
        "meta_mean_motion_dot": -1.5e-07,
        "meta_mean_motion_ddot": 0,
        "tle_line1": "1 36111U 09070A   25341.86435373 -.00000015  00000+0  00000+0 0  9997",
        "tle_line2": "2 36111  64.8974  77.5047 0003043 297.6461  61.5166  2.13103432124345"
      },
      "geometry": {
        "type": "Point",
        "coordinates": [
          -100.31328489727994,
          -4.687014281047388
        ]
      }
    },
    {
      "type": "Feature",
      "properties": {
        "norad_id": 36112,
        "name": "COSMOS 2457 (733)",
        "group": "gnss",
        "lat": -40.350277832838195,
        "lon": 53.88868291644238,
        "alt_km": 19146.05643784414,
        "timestamp": "2025-12-08T13:49:32.033793+00:00",
        "meta_object_name": "COSMOS 2457 (733)",
        "meta_object_id": "2009-070B",
        "meta_epoch": "2025-12-08T05:12:02.715840",
        "meta_mean_motion": 2.13100811,
        "meta_eccentricity": 0.0004735,
        "meta_inclination": 64.8829,
        "meta_ra_of_asc_node": 77.3403,
        "meta_arg_of_pericenter": 158.3782,
        "meta_mean_anomaly": 240.2784,
        "meta_ephemeris_type": 0,
        "meta_classification_type": "U",
        "meta_norad_cat_id": 36112,
        "meta_element_set_no": 999,
        "meta_rev_at_epoch": 12436,
        "meta_bstar": 0,
        "meta_mean_motion_dot": -1.5e-07,
        "meta_mean_motion_ddot": 0,
        "tle_line1": "1 36112U 09070B   25342.21669810 -.00000015  00000+0  00000+0 0  9993",
        "tle_line2": "2 36112  64.8829  77.3403 0004735 158.3782 240.2784  2.13100811124369"
      },
      "geometry": {
        "type": "Point",
        "coordinates": [
          53.88868291644238,
          -40.350277832838195
        ]
      }
    },
    {
      "type": "Feature",
      "properties": {
        "norad_id": 36402,
        "name": "COSMOS 2460 (732)",
        "group": "gnss",
        "lat": -41.06591161632228,
        "lon": -62.46800315207435,
        "alt_km": 19129.34819378359,
        "timestamp": "2025-12-08T13:49:32.033805+00:00",
        "meta_object_name": "COSMOS 2460 (732)",
        "meta_object_id": "2010-007C",
        "meta_epoch": "2025-12-08T05:41:00.073824",
        "meta_mean_motion": 2.13106068,
        "meta_eccentricity": 0.00026932,
        "meta_inclination": 65.5322,
        "meta_ra_of_asc_node": 320.9255,
        "meta_arg_of_pericenter": 274.5439,
        "meta_mean_anomaly": 138.949,
        "meta_ephemeris_type": 0,
        "meta_classification_type": "U",
        "meta_norad_cat_id": 36402,
        "meta_element_set_no": 999,
        "meta_rev_at_epoch": 12266,
        "meta_bstar": 0,
        "meta_mean_motion_dot": -4.9e-07,
        "meta_mean_motion_ddot": 0,
        "tle_line1": "1 36402U 10007C   25342.23680641 -.00000049  00000+0  00000+0 0  9991",
        "tle_line2": "2 36402  65.5322 320.9255 0002693 274.5439 138.9490  2.13106068122668"
      },
      "geometry": {
        "type": "Point",
        "coordinates": [
          -62.46800315207435,
          -41.06591161632228
        ]
      }
    }
  ]
}